[{"OBJECT_NAME":"FORMOSAT 7-2","OBJECT_ID":"2019-036N","EPOCH":"2026-03-09T11:02:55.703616","MEAN_MOTION":14.96019264,"ECCENTRICITY":9.711e-5,"INCLINATION":23.9982,"RA_OF_ASC_NODE":100.9036,"ARG_OF_PERICENTER":99.0828,"MEAN_ANOMALY":260.9782,"EPHEMERIS_TYPE":0,"CLASSIFICATION_TYPE":"U","NORAD_CAT_ID":44351,"ELEMENT_SET_NO":999,"REV_AT_EPOCH":36863,"BSTAR":0.00030629276,"MEAN_MOTION_DOT":3.823e-5,"MEAN_MOTION_DDOT":0},{"OBJECT_NAME":"STARLINK-6029","OBJECT_ID":"2023-078AN","EPOCH":"2026-03-09T23:24:27.768096","MEAN_MOTION":14.98329288,"ECCENTRICITY":0.00028402,"INCLINATION":70.0008,"RA_OF_ASC_NODE":343.7116,"ARG_OF_PERICENTER":268.0414,"MEAN_ANOMALY":92.042,"EPHEMERIS_TYPE":0,"CLASSIFICATION_TYPE":"U","NORAD_CAT_ID":56803,"ELEMENT_SET_NO":999,"REV_AT_EPOCH":15272,"BSTAR":-3.8886079e-5,"MEAN_MOTION_DOT":-5.57e-6,"MEAN_MOTION_DDOT":0}]
